[{"OBJECT_NAME":"STARLINK-34588","OBJECT_ID":"2025-144F","EPOCH":"2026-03-09T18:38:49.778592","MEAN_MOTION":15.30199915,"ECCENTRICITY":0.00012163,"INCLINATION":53.158,"RA_OF_ASC_NODE":180.7507,"ARG_OF_PERICENTER":82.8633,"MEAN_ANOMALY":277.2506,"EPHEMERIS_TYPE":0,"CLASSIFICATION_TYPE":"U","NORAD_CAT_ID":64729,"ELEMENT_SET_NO":999,"REV_AT_EPOCH":3972,"BSTAR":0.00071808352,"MEAN_MOTION_DOT":0.00020968,"MEAN_MOTION_DDOT":0},{"OBJECT_NAME":"USA 55","OBJECT_ID":"1990-028B","EPOCH":"2026-03-09T23:32:27.967200","MEAN_MOTION":15.43003152,"ECCENTRICITY":0.00579189,"INCLINATION":94.0887,"RA_OF_ASC_NODE":87.6293,"ARG_OF_PERICENTER":152.9949,"MEAN_ANOMALY":207.4341,"EPHEMERIS_TYPE":0,"CLASSIFICATION_TYPE":"U","NORAD_CAT_ID":20547,"ELEMENT_SET_NO":999,"REV_AT_EPOCH":98658,"BSTAR":0.00013659834,"MEAN_MOTION_DOT":6.373e-5,"MEAN_MOTION_DDOT":0}]
